BEIDOU-3S IGSO-1S       
1 40549U 15019A   26176.81692014 -.00000174  00000+0  00000+0 0  9992
2 40549  49.1775 295.3568 0039037 191.6631 171.6620  1.00249619 41161
NAVSTAR 74 (USA 262)    
1 40730U 15033A   26177.19577832 -.00000036  00000+0  00000+0 0  9999
2 40730  53.9753 266.7149 0115154  30.2445 330.4598  2.00555927 80171
BEIDOU-3S M2S           
1 40748U 15037A   26174.22980179 -.00000108  00000+0  00000+0 0  9995
2 40748  54.8652 301.8377 0008569 258.4474 101.4494  1.86231957 74237
BEIDOU-3S M1S           
1 40749U 15037B   26175.51021828 -.00000109  00000+0  00000+0 0  9997
2 40749  54.8605 301.7817 0003283  62.2648 297.7606  1.86254971 74264
GSAT0206 (GALILEO 10)   
1 40890U 15045B   26175.49628500  .00000051  00000+0  00000+0 0  9995
2 40890  54.9433 221.4024 0001685 336.0482  24.0274  1.70473861 67168
BEIDOU-3S IGSO-2S       
1 40938U 15053A   26176.68650015 -.00000126  00000+0  00000+0 0  9999
2 40938  49.2068 258.6794 0065505 192.9195 164.0515  1.00257859 39431
NAVSTAR 75 (USA 265)    
1 41019U 15062A   26176.75292304 -.00000085  00000+0  00000+0 0  9995
2 41019  56.9652  30.4811 0112145 231.0110 128.0368  2.00567225 78001
GSAT-15                 
1 41028U 15065A   26177.04252516 -.00000247  00000+0  00000+0 0  9992
2 41028   0.0502 263.8085 0004589 172.2260 306.9693  1.00271331 38883
GSAT0209 (GALILEO 12)   
1 41174U 15079A   26176.25098990 -.00000038  00000+0  00000+0 0  9993
2 41174  55.8320 101.0407 0005047 349.0522  10.9102  1.70473764 64918
GSAT0208 (GALILEO 11)   
1 41175U 15079B   26173.53836061 -.00000027  00000+0  00000+0 0  9999
2 41175  55.8290 101.1119 0004839 343.6998  16.2634  1.70473694 65283
IRNSS-1E                
1 41241U 16003A   26176.59836588 -.00000319  00000+0  00000+0 0  9998
2 41241  33.2517  59.6282 0019062 179.1130   2.2203  1.00274592 38164
NAVSTAR 76 (USA 266)    
1 41328U 16007A   26174.85002808 -.00000060  00000+0  00000+0 0  9998
2 41328  55.5277  89.1954 0095820 247.3210 111.6653  2.00551374 75978
COSMOS 2514 [GLONASS-M] 
1 41330U 16008A   26174.85480678 -.00000083  00000+0  00000+0 0  9992
2 41330  65.0172 312.7777 0011551 198.7083 161.2407  2.13102654 80763
BEIDOU-2 IGSO-6         
1 41434U 16021A   26175.09191728 -.00000155  00000+0  00000+0 0  9994
2 41434  60.2358  37.9691 0057538 231.1257 128.7042  1.00259092 37558
IRNSS-1G                
1 41469U 16027A   26176.35615294 -.00000329  00000+0  00000+0 0  9990
2 41469   5.2158  97.2878 0006269   2.9813  70.7125  1.00276580 37263
GSAT0211 (GALILEO 14)   
1 41549U 16030A   26174.83541472  .00000046  00000+0  00000+0 0  9995
2 41549  55.0937 221.5119 0003056 321.3377  38.7209  1.70474023 62785
GSAT0210 (GALILEO 13)   
1 41550U 16030B   26176.26585571  .00000056  00000+0  00000+0 0  9995
2 41550  55.0912 221.4705 0008659 257.5264 102.4641  1.70473937 62804
BEIDOU-2 G7             
1 41586U 16037A   26177.11715582 -.00000344  00000+0  00000+0 0  9994
2 41586   1.7426  69.4098 0006840   0.9868 356.5771  1.00272762  6974
EUTELSAT 117 WEST B     
1 41589U 16038B   26177.00086670 -.00000001  00000+0  00000+0 0  9995
2 41589   0.0089 149.5710 0000345 105.6280 262.2624  1.00273901 36755
GSAT0207 (GALILEO 15)   
1 41859U 16069A   26174.19787196 -.00000031  00000+0  00000+0 0  9990
2 41859  55.5021 100.9199 0005134 331.8808  28.0688  1.70473659 59503
GSAT0212 (GALILEO 16)   
1 41860U 16069B   26176.98423706 -.00000039  00000+0  00000+0 0  9993
2 41860  55.5014 100.8378 0004403  10.9452 349.0377  1.70473828 59805
GSAT0213 (GALILEO 17)   
1 41861U 16069C   26176.17825865 -.00000039  00000+0  00000+0 0  9997
2 41861  55.5032 100.8681 0004629 315.3374  44.5989  1.70474298 59659
GSAT0214 (GALILEO 18)   
1 41862U 16069D   26172.80498560 -.00000023  00000+0  00000+0 0  9995
2 41862  55.5000 100.9540 0003849 321.2487  38.7039  1.70473560 59724
SES-15                  
1 42709U 17026A   26175.50131078  .00000068  00000+0  00000+0 0  9996
2 42709   0.0193 335.4736 0000659  95.5096 252.9752  1.00268280  7503
QZS-2 (MICHIBIKI-2)     
1 42738U 17028A   26175.48562404 -.00000157  00000+0  00000+0 0  9998
2 42738  39.4163 243.0474 0759303 269.3393  77.0374  1.00282000  7691
QZS-3 (MICHIBIKI-3)     
1 42917U 17048A   26177.26308200 -.00000337  00000+0  00000+0 0  9999
2 42917   0.0665 149.3596 0002273 301.8035  44.9829  1.00272337 32357
COSMOS 2522 [GLONASS-M] 
1 42939U 17055A   26175.16181676  .00000104  00000+0  00000+0 0  9995
2 42939  64.0776 191.6387 0008409 235.5259 124.4452  2.13101107 68121
QZS-4 (MICHIBIKI-4)     
1 42965U 17062A   26176.33665515 -.00000360  00000+0  00000+0 0  9996
2 42965  40.1041 343.3808 0746739 268.2453 280.8214  1.00297191 31888
BEIDOU-3 M1             
1 43001U 17069A   26176.18738301 -.00000093  00000+0  00000+0 0  9995
2 43001  56.6993  62.8203 0009999 326.6653  33.3105  1.86231357 58752
BEIDOU-3 M2             
1 43002U 17069B   26173.97832444 -.00000093  00000+0  00000+0 0  9993
2 43002  56.6963  62.9294 0008992 352.6727   7.3499  1.86230523 58700
GSAT0215 (GALILEO 19)   
1 43055U 17079A   26176.22771248  .00000057  00000+0  00000+0 0  9996
2 43055  55.0718 221.2853 0003380 264.8914  95.1572  1.70474697 53121
